COMMENT,ORIGINATOR,NORAD_CAT_ID,OBJECT_NAME,OBJECT_TYPE,CLASSIFICATION_TYPE,INTLDES,EPOCH,EPOCH_MICROSECONDS,MEAN_MOTION,ECCENTRICITY,INCLINATION,RA_OF_ASC_NODE,ARG_OF_PERICENTER,MEAN_ANOMALY,EPHEMERIS_TYPE,ELEMENT_SET_NO,REV_AT_EPOCH,BSTAR,MEAN_MOTION_DOT,MEAN_MOTION_DDOT,FILE,TLE_LINE0,TLE_LINE1,TLE_LINE2,OBJECT_ID,OBJECT_NUMBER,SEMIMAJOR_AXIS,PERIOD,APOGEE,PERIGEE,DECAYED
"GENERATED VIA SPACETRACK.ORG API","18 SPCS","48904","SPACEBEE-111","PAYLOAD","U","21059AB","2021-11-19 08:25:38","863200","15.13146212","0.0012347","97.5345","90.1756","106.6913","253.5674","0","999","2215","0.00015481","0.00002683","0","3219098","0 SPACEBEE-111","1 48904U 21059AB  21323.35114425  .00002683  00000-0  15481-3 0  9999","2 48904  97.5345  90.1756 0012347 106.6913 253.5674 15.13146212 22159","2021-059AB","48904","6904.749","95.166","535.140","518.089","1"
"GENERATED VIA SPACETRACK.ORG API","18 SPCS","48904","SPACEBEE-111","PAYLOAD","U","21059AB","2021-11-19 08:25:38","863200","15.13146212","0.0012347","97.5345","90.1756","106.6913","253.5674","0","999","2215","0.00015481","0.00002683","0","3219209","0 SPACEBEE-111","1 48904U 21059AB  21323.35114425  .00002683  00000-0  15481-3 0  9999","2 48904  97.5345  90.1756 0012347 106.6913 253.5674 15.13146212 22159","2021-059AB","48904","6904.749","95.166","535.140","518.089","1"
"GENERATED VIA SPACETRACK.ORG API","18 SPCS","48904","SPACEBEE-111","PAYLOAD","U","21059AB","2021-11-19 19:32:13","818912","15.13148526","0.0012355","97.5347","90.6331","105.2497","255.0101","0","999","2222","0.00013962","0.00002413","0","3219247","0 SPACEBEE-111","1 48904U 21059AB  21323.81404883  .00002413  00000-0  13962-3 0  9993","2 48904  97.5347  90.6331 0012355 105.2497 255.0101 15.13148526 22226","2021-059AB","48904","6904.742","95.166","535.138","518.076","1"
"GENERATED VIA SPACETRACK.ORG API","18 SPCS","48904","SPACEBEE-111","PAYLOAD","U","21059AB","2021-11-20 01:53:08","66976","15.13149787","0.001236","97.5348","90.8945","104.4141","255.8463","0","999","2226","0.00013514","0.00002334","0","3220049","0 SPACEBEE-111","1 48904U 21059AB  21324.07856559  .00002334  00000-0  13514-3 0  9998","2 48904  97.5348  90.8945 0012360 104.4141 255.8463 15.13149787 22266","2021-059AB","48904","6904.738","95.166","535.138","518.069","1"
"GENERATED VIA SPACETRACK.ORG API","18 SPCS","48904","SPACEBEE-111","PAYLOAD","U","21059AB","2021-11-21 03:16:44","869152","15.13155791","0.0012372","97.5349","91.9401","101.1377","259.1246","0","999","2242","0.00014221","0.0000246","0","3220332","0 SPACEBEE-111","1 48904U 21059AB  21325.13663043  .00002460  00000-0  14221-3 0  9996","2 48904  97.5349  91.9401 0012372 101.1377 259.1246 15.13155791 22420","2021-059AB","48904","6904.720","95.165","535.128","518.043","1"
"GENERATED VIA SPACETRACK.ORG API","18 SPCS","48904","SPACEBEE-111","PAYLOAD","U","21059AB","2021-11-21 08:02:25","479168","15.13157092","0.0012376","97.5349","92.1362","100.5187","259.7439","0","999","2245","0.00014629","0.00002532","0","3220686","0 SPACEBEE-111","1 48904U 21059AB  21325.33501712  .00002532  00000-0  14629-3 0  9994","2 48904  97.5349  92.1362 0012376 100.5187 259.7439 15.13157092 22454","2021-059AB","48904","6904.716","95.165","535.126","518.036","1"
"GENERATED VIA SPACETRACK.ORG API","18 SPCS","48904","SPACEBEE-111","PAYLOAD","U","21059AB","2021-11-21 19:09:00","216288","15.13159425","0.0012377","97.535","92.5936","99.1184","261.1448","0","999","2252","0.00014873","0.00002576","0","3220934","0 SPACEBEE-111","1 48904U 21059AB  21325.79791917  .00002576  00000-0  14873-3 0  9991","2 48904  97.5350  92.5936 0012377  99.1184 261.1448 15.13159425 22525","2021-059AB","48904","6904.709","95.165","535.120","518.028","1"
"GENERATED VIA SPACETRACK.ORG API","18 SPCS","48904","SPACEBEE-111","PAYLOAD","U","21059AB","2021-11-22 14:11:42","464544","15.13163239","0.0012372","97.535","93.3779","96.6843","263.5797","0","999","2264","0.00015017","0.00002601","0","3221278","0 SPACEBEE-111","1 48904U 21059AB  21326.59146371  .00002601  00000-0  15017-3 0  9998","2 48904  97.5350  93.3779 0012372  96.6843 263.5797 15.13163239 22642","2021-059AB","48904","6904.697","95.165","535.105","518.020","1"
"GENERATED VIA SPACETRACK.ORG API","18 SPCS","48904","SPACEBEE-111","PAYLOAD","U","21059AB","2021-11-22 18:57:22","988160","15.13164398","0.0012374","97.535","93.5739","96.0985","264.1657","0","999","2267","0.00015192","0.00002633","0","3221510","0 SPACEBEE-111","1 48904U 21059AB  21326.78984940  .00002633  00000-0  15192-3 0  9990","2 48904  97.5350  93.5739 0012374  96.0985 264.1657 15.13164398 22675","2021-059AB","48904","6904.694","95.165","535.103","518.015","1"
"GENERATED VIA SPACETRACK.ORG API","18 SPCS","48904","SPACEBEE-111","PAYLOAD","U","21059AB","2021-11-23 07:39:11","9952","15.13167373","0.0012369","97.535","94.0967","94.4831","265.7814","0","999","2275","0.00015874","0.00002754","0","3222418","0 SPACEBEE-111","1 48904U 21059AB  21327.31887743  .00002754  00000-0  15874-3 0  9994","2 48904  97.5350  94.0967 0012369  94.4831 265.7814 15.13167373 22757","2021-059AB","48904","6904.685","95.165","535.090","518.009","1"
"GENERATED VIA SPACETRACK.ORG API","18 SPCS","48904","SPACEBEE-111","PAYLOAD","U","21059AB","2021-11-23 20:20:58","932384","15.13170989","0.0012371","97.535","94.6195","92.8981","267.3666","0","999","2283","0.00017373","0.00003021","0","3222563","0 SPACEBEE-111","1 48904U 21059AB  21327.84790431  .00003021  00000-0  17373-3 0  9993","2 48904  97.5350  94.6195 0012371  92.8981 267.3666 15.13170989 22836","2021-059AB","48904","6904.674","95.164","535.081","517.997","1"
"GENERATED VIA SPACETRACK.ORG API","18 SPCS","48904","SPACEBEE-111","PAYLOAD","U","21059AB","2021-11-23 20:20:58","932384","15.13170989","0.0012371","97.535","94.6195","92.8981","267.3666","0","999","2283","0.00017373","0.00003021","0","3222696","0 SPACEBEE-111","1 48904U 21059AB  21327.84790431  .00003021  00000-0  17373-3 0  9993","2 48904  97.5350  94.6195 0012371  92.8981 267.3666 15.13170989 22836","2021-059AB","48904","6904.674","95.164","535.081","517.997","1"
"GENERATED VIA SPACETRACK.ORG API","18 SPCS","48904","SPACEBEE-111","PAYLOAD","U","21059AB","2021-11-24 13:48:27","145152","15.13174898","0.0012366","97.5349","95.3384","90.7086","269.5562","0","999","2294","0.00016998","0.00002954","0","3223022","0 SPACEBEE-111","1 48904U 21059AB  21328.57531418  .00002954  00000-0  16998-3 0  9998","2 48904  97.5349  95.3384 0012366  90.7086 269.5562 15.13174898 22943","2021-059AB","48904","6904.662","95.164","535.065","517.989","1"
"GENERATED VIA SPACETRACK.ORG API","18 SPCS","48904","SPACEBEE-111","PAYLOAD","U","21059AB","2021-11-25 13:36:48","916512","15.13181742","0.0012357","97.5349","96.3187","87.7111","272.5534","0","999","2309","0.00018173","0.00003164","0","3223742","0 SPACEBEE-111","1 48904U 21059AB  21329.56723283  .00003164  00000-0  18173-3 0  9992","2 48904  97.5349  96.3187 0012357  87.7111 272.5534 15.13181742 23096","2021-059AB","48904","6904.641","95.164","535.038","517.974","1"
"GENERATED VIA SPACETRACK.ORG API","18 SPCS","48904","SPACEBEE-111","PAYLOAD","U","21059AB","2021-11-26 15:00:23","734080","15.13189292","0.0012353","97.5348","97.3643","84.4953","275.7687","0","999","2325","0.00019336","0.00003371","0","3224704","0 SPACEBEE-111","1 48904U 21059AB  21330.62527470  .00003371  00000-0  19336-3 0  9993","2 48904  97.5348  97.3643 0012353  84.4953 275.7687 15.13189292 23257","2021-059AB","48904","6904.618","95.163","535.012","517.954","1"
"GENERATED VIA SPACETRACK.ORG API","18 SPCS","48904","SPACEBEE-111","PAYLOAD","U","21059AB","2021-11-26 19:46:03","959616","15.13190641","0.0012349","97.5348","97.5603","83.9037","276.3601","0","999","2328","0.00019245","0.00003355","0","3224811","0 SPACEBEE-111","1 48904U 21059AB  21330.82365694  .00003355  00000-0  19245-3 0  9994","2 48904  97.5348  97.5603 0012349  83.9037 276.3601 15.13190641 23283","2021-059AB","48904","6904.614","95.163","535.006","517.953","1"
"GENERATED VIA SPACETRACK.ORG API","18 SPCS","48904","SPACEBEE-111","PAYLOAD","U","21059AB","2021-11-26 19:46:03","959616","15.13190641","0.0012349","97.5348","97.5603","83.9037","276.3601","0","999","2328","0.00019245","0.00003355","0","3224952","0 SPACEBEE-111","1 48904U 21059AB  21330.82365694  .00003355  00000-0  19245-3 0  9994","2 48904  97.5348  97.5603 0012349  83.9037 276.3601 15.13190641 23283","2021-059AB","48904","6904.614","95.163","535.006","517.953","1"
"GENERATED VIA SPACETRACK.ORG API","18 SPCS","48904","SPACEBEE-111","PAYLOAD","U","21059AB","2021-11-27 05:17:24","374400","15.13192354","0.0012338","97.5348","97.9524","82.6436","277.6197","0","999","2334","0.00017632","0.00003069","0","3225405","0 SPACEBEE-111","1 48904U 21059AB  21331.22042100  .00003069  00000-0  17632-3 0  9993","2 48904  97.5348  97.9524 0012338  82.6436 277.6197 15.13192354 23340","2021-059AB","48904","6904.609","95.163","534.993","517.955","1"
"GENERATED VIA SPACETRACK.ORG API","18 SPCS","48904","SPACEBEE-111","PAYLOAD","U","21059AB","2021-11-27 19:34:24","866112","15.13197186","0.0012331","97.5347","98.5406","80.8008","279.4617","0","999","2343","0.00019022","0.00003316","0","3225675","0 SPACEBEE-111","1 48904U 21059AB  21331.81556558  .00003316  00000-0  19022-3 0  9995","2 48904  97.5347  98.5406 0012331  80.8008 279.4617 15.13197186 23438","2021-059AB","48904","6904.594","95.163","534.973","517.945","1"
"GENERATED VIA SPACETRACK.ORG API","18 SPCS","48904","SPACEBEE-111","PAYLOAD","U","21059AB","2021-11-28 01:55:18","361632","15.13197467","0.0012322","97.5347","98.8021","79.9617","280.3004","0","999","2347","0.00016206","0.00002815","0","3225788","0 SPACEBEE-111","1 48904U 21059AB  21332.08007363  .00002815  00000-0  16206-3 0  9994","2 48904  97.5347  98.8021 0012322  79.9617 280.3004 15.13197467 23476","2021-059AB","48904","6904.593","95.163","534.966","517.950","1"
